NORAD_CAT_ID,OBJECT_NAME,OBJECT_TYPE,EPOCH,MEAN_MOTION,ECCENTRICITY,INCLINATION,RA_OF_ASC_NODE,ARG_OF_PERICENTER,MEAN_ANOMALY,BSTAR,MEAN_MOTION_DOT,MEAN_MOTION_DDOT,TLE_LINE0,TLE_LINE1,TLE_LINE2,SEMIMAJOR_AXIS,PERIOD,APOGEE,PERIGEE,DECAYED
55760.0,STARLINK-5532,PAYLOAD,2023-09-23 13:26:55,14.9833197,0.0003015,69.9999,348.7788,268.4277,91.6536,-2.3628e-05,-3.75e-06,0.0,0 STARLINK-5532,1 55760U 23028V   23266.56036085 -.00000375  00000-0 -23628-4 0  9992,2 55760  69.9999 348.7788 0003015 268.4277  91.6536 14.98331970 31511,6950.187,96.107,574.147,569.956,0.0
55760.0,STARLINK-5532,PAYLOAD,2023-09-24 05:28:16,14.98294103,0.0002995,70.0003,347.0975,263.5306,96.5512,0.00066528,7.847e-05,0.0,0 STARLINK-5532,1 55760U 23028V   23267.22796860  .00007847  00000-0  66528-3 0  9994,2 55760  70.0003 347.0975 0002995 263.5306  96.5512 14.98294103 31609,6950.304,96.109,574.251,570.087,0.0
55760.0,STARLINK-5532,PAYLOAD,2023-09-24 10:16:39,14.98332977,0.0002931,70.0003,346.5925,264.0912,95.9913,-1.7416e-05,-3.01e-06,0.0,0 STARLINK-5532,1 55760U 23028V   23267.42823784 -.00000301  00000-0 -17416-4 0  9995,2 55760  70.0003 346.5925 0002931 264.0912  95.9913 14.98332977 31630,6950.184,96.107,574.086,570.012,0.0
55760.0,STARLINK-5532,PAYLOAD,2023-09-24 13:28:55,14.98335473,0.0002857,70.0005,346.2558,257.0635,103.0205,-1.3262e-05,-2.51e-06,0.0,0 STARLINK-5532,1 55760U 23028V   23267.56175543 -.00000251  00000-0 -13262-4 0  9992,2 55760  70.0005 346.2558 0002857 257.0635 103.0205 14.98335473 31664,6950.176,96.107,574.027,570.055,0.0
55760.0,STARLINK-5532,PAYLOAD,2023-09-24 15:05:03,14.98335883,0.0002868,70.0005,346.0874,257.8389,102.2449,-9.2674e-06,-2.04e-06,0.0,0 STARLINK-5532,1 55760U 23028V   23267.62851485 -.00000204  00000-0 -92674-5 0  9998,2 55760  70.0005 346.0874 0002868 257.8389 102.2449 14.98335883 31676,6950.175,96.107,574.033,570.046,0.0
55760.0,STARLINK-5532,PAYLOAD,2023-09-25 13:30:56,14.98334259,0.0002754,70.0005,343.7316,258.9924,101.0925,8.0531e-05,8.68e-06,0.0,0 STARLINK-5532,1 55760U 23028V   23268.56315274  .00000868  00000-0  80531-4 0  9995,2 55760  70.0005 343.7316 0002754 258.9924 101.0925 14.98334259 31810,6950.18,96.107,573.959,570.131,0.0
55760.0,STARLINK-5532,PAYLOAD,2023-09-25 15:07:04,14.98334964,0.000275,70.0005,343.5634,258.853,101.232,8.7074e-05,9.46e-06,0.0,0 STARLINK-5532,1 55760U 23028V   23268.62991195  .00000946  00000-0  87074-4 0  9990,2 55760  70.0005 343.5634 0002750 258.8530 101.2320 14.98334964 31813,6950.178,96.107,573.954,570.131,0.0
55760.0,STARLINK-5532,PAYLOAD,2023-09-26 10:20:41,14.98326521,0.0002588,70.0009,341.5445,253.4993,106.5882,-3.2173e-05,-4.77e-06,0.0,0 STARLINK-5532,1 55760U 23028V   23269.43104045 -.00000477  00000-0 -32173-4 0  9991,2 55760  70.0009 341.5445 0002588 253.4993 106.5882 14.98326521 31932,6950.204,96.107,573.867,570.27,0.0
55760.0,STARLINK-5532,PAYLOAD,2023-09-26 13:32:58,14.98323661,0.0002598,70.0008,341.2076,256.5864,103.5005,-6.7331e-05,-8.96e-06,0.0,0 STARLINK-5532,1 55760U 23028V   23269.56456376 -.00000896  00000-0 -67331-4 0  9991,2 55760  70.0008 341.2076 0002598 256.5864 103.5005 14.98323661 31969,6950.212,96.107,573.883,570.272,0.0
55760.0,STARLINK-5532,PAYLOAD,2023-09-26 15:09:06,14.98323279,0.000265,70.0008,341.0392,257.1119,102.9744,-5.3237e-05,-7.28e-06,0.0,0 STARLINK-5532,1 55760U 23028V   23269.63132390 -.00000728  00000-0 -53237-4 0  9990,2 55760  70.0008 341.0392 0002650 257.1119 102.9744 14.98323279 31976,6950.214,96.107,573.92,570.237,0.0
55760.0,STARLINK-5532,PAYLOAD,2023-09-27 11:58:50,14.98333381,0.0002733,69.9999,338.8483,264.4897,95.5951,-4.0091e-06,-1.41e-06,0.0,0 STARLINK-5532,1 55760U 23028V   23270.49919668 -.00000141  00000-0 -40091-5 0  9991,2 55760  69.9999 338.8483 0002733 264.4897  95.5951 14.98333381 32101,6950.182,96.107,573.947,570.148,0.0
55760.0,STARLINK-5532,PAYLOAD,2023-09-27 15:11:06,14.98334933,0.0002731,69.9999,338.5117,264.6025,95.4823,1.4019e-05,7.4e-07,0.0,0 STARLINK-5532,1 55760U 23028V   23270.63271486  .00000074  00000-0  14019-4 0  9999,2 55760  69.9999 338.5117 0002731 264.6025  95.4823 14.98334933 32117,6950.178,96.107,573.941,570.145,0.0
55760.0,STARLINK-5532,PAYLOAD,2023-09-28 12:00:51,14.98324273,0.0002757,69.9999,336.3233,266.9097,93.1746,4.0918e-05,3.95e-06,0.0,0 STARLINK-5532,1 55760U 23028V   23271.50060141  .00000395  00000-0  40918-4 0  9993,2 55760  69.9999 336.3233 0002757 266.9097  93.1746 14.98324273 32243,6950.211,96.107,573.992,570.159,0.0
55760.0,STARLINK-5532,PAYLOAD,2023-09-28 13:37:00,14.98324393,0.0002764,69.9998,336.155,267.434,92.6502,4.0312e-05,3.88e-06,0.0,0 STARLINK-5532,1 55760U 23028V   23271.56736158  .00000388  00000-0  40312-4 0  9997,2 55760  69.9998 336.1550 0002764 267.4340  92.6502 14.98324393 32266,6950.21,96.107,573.996,570.154,0.0
55760.0,STARLINK-5532,PAYLOAD,2023-09-29 12:02:52,14.98330701,0.0002743,69.9998,333.7981,262.508,97.5767,-4.1642e-06,-1.43e-06,0.0,0 STARLINK-5532,1 55760U 23028V   23272.50199912 -.00000143  00000-0 -41642-5 0  9992,2 55760  69.9998 333.7981 0002743 262.5080  97.5767 14.98330701 32392,6950.191,96.107,573.962,570.149,0.0
55760.0,STARLINK-5532,PAYLOAD,2023-09-29 13:39:00,14.98331141,0.000273,69.9998,333.6299,261.9702,98.1147,2.3057e-06,-6.5e-07,0.0,0 STARLINK-5532,1 55760U 23028V   23272.56875860 -.00000065  00000-0  23057-5 0  9993,2 55760  69.9998 333.6299 0002730 261.9702  98.1147 14.98331141 32414,6950.189,96.107,573.952,570.157,0.0
55760.0,STARLINK-5532,PAYLOAD,2023-09-30 05:40:20,14.98335168,0.0003163,69.9986,331.9463,268.1521,91.9275,4.9107e-05,4.93e-06,0.0,0 STARLINK-5532,1 55760U 23028V   23273.23635270  .00000493  00000-0  49107-4 0  9994,2 55760  69.9986 331.9463 0003163 268.1521  91.9275 14.98335168 32511,6950.177,96.107,574.24,569.844,0.0
55760.0,STARLINK-5532,PAYLOAD,2023-09-30 10:28:44,14.98337219,0.0003109,69.9987,331.4412,268.57,91.5103,8.1782e-05,8.83e-06,0.0,0 STARLINK-5532,1 55760U 23028V   23273.43662965  .00000883  00000-0  81782-4 0  9995,2 55760  69.9987 331.4412 0003109 268.5700  91.5103 14.98337219 32531,6950.171,96.107,574.196,569.875,0.0
55760.0,STARLINK-5532,PAYLOAD,2023-10-01 02:30:05,14.98330253,0.0002773,69.9994,329.757,264.1426,95.9417,8.1751e-06,5e-08,0.0,0 STARLINK-5532,1 55760U 23028V   23274.10423390  .00000005  00000-0  81751-5 0  9990,2 55760  69.9994 329.7570 0002773 264.1426  95.9417 14.98330253 32635,6950.192,96.107,573.984,570.13,0.0
55760.0,STARLINK-5532,PAYLOAD,2023-10-01 12:06:54,14.98330514,0.0002811,69.9997,328.7465,267.886,92.1977,1.681e-05,1.08e-06,0.0,0 STARLINK-5532,1 55760U 23028V   23274.50479331  .00000108  00000-0  16810-4 0  9997,2 55760  69.9997 328.7465 0002811 267.8860  92.1977 14.98330514 32703,6950.191,96.107,574.01,570.103,0.0
55760.0,STARLINK-5532,PAYLOAD,2023-10-01 13:43:02,14.98331662,0.000275,69.9993,328.578,264.0176,96.067,2.5447e-05,2.11e-06,0.0,0 STARLINK-5532,1 55760U 23028V   23274.57155186  .00000211  00000-0  25447-4 0  9994,2 55760  69.9993 328.5780 0002750 264.0176  96.0670 14.98331662 32717,6950.188,96.107,573.964,570.141,0.0
55760.0,STARLINK-5532,PAYLOAD,2023-10-02 12:08:55,14.98326958,0.0002923,69.999,326.2219,269.4366,90.6458,-0.00013947,-1.757e-05,0.0,0 STARLINK-5532,1 55760U 23028V   23275.50619939 -.00001757  00000-0 -13947-3 0  9998,2 55760  69.9990 326.2219 0002923 269.4366  90.6458 14.98326958 32848,6950.202,96.107,574.099,570.036,0.0
55760.0,STARLINK-5532,PAYLOAD,2023-10-02 20:09:35,14.98336096,0.0003005,69.9987,325.3802,268.5239,91.5576,-0.0001865,-2.318e-05,0.0,0 STARLINK-5532,1 55760U 23028V   23275.83999466 -.00002318  00000-0 -18650-3 0  9990,2 55760  69.9987 325.3802 0003005 268.5239  91.5576 14.98336096 32893,6950.174,96.107,574.128,569.951,0.0
55760.0,STARLINK-5532,PAYLOAD,2023-10-03 12:10:55,14.98332708,0.0002964,69.9984,323.697,267.2247,92.8573,6.1157e-05,6.37e-06,0.0,0 STARLINK-5532,1 55760U 23028V   23276.50759101  .00000637  00000-0  61157-4 0  9996,2 55760  69.9984 323.6970 0002964 267.2247  92.8573 14.98332708 33006,6950.185,96.107,574.11,569.989,0.0
55760.0,STARLINK-5532,PAYLOAD,2023-10-04 10:36:48,14.98329094,0.0003007,69.998,321.3398,271.4273,88.6541,0.00010393,1.147e-05,0.0,0 STARLINK-5532,1 55760U 23028V   23277.44223201  .00001147  00000-0  10393-3 0  9999,2 55760  69.9980 321.3398 0003007 271.4273  88.6541 14.98329094 33132,6950.196,96.107,574.151,569.971,0.0
55760.0,STARLINK-5532,PAYLOAD,2023-10-04 12:12:56,14.98330696,0.000299,69.9981,321.1715,271.7953,88.2863,0.00012009,1.34e-05,0.0,0 STARLINK-5532,1 55760U 23028V   23277.50899062  .00001340  00000-0  12009-3 0  9991,2 55760  69.9981 321.1715 0002990 271.7953  88.2863 14.98330696 33157,6950.191,96.107,574.134,569.978,0.0
55760.0,STARLINK-5532,PAYLOAD,2023-10-04 20:13:37,14.98330021,0.0003027,69.998,320.3296,273.9013,86.18,6.2274e-05,6.5e-06,0.0,0 STARLINK-5532,1 55760U 23028V   23277.84279236  .00000650  00000-0  62274-4 0  9996,2 55760  69.9980 320.3296 0003027 273.9013  86.1800 14.98330021 33200,6950.193,96.107,574.162,569.954,0.0
55760.0,STARLINK-5532,PAYLOAD,2023-10-05 10:38:50,14.98329321,0.000281,69.9986,318.816,273.8681,86.2156,-2.8376e-05,-4.32e-06,0.0,0 STARLINK-5532,1 55760U 23028V   23278.44363600 -.00000432  00000-0 -28376-4 0  9997,2 55760  69.9986 318.8160 0002810 273.8681  86.2156 14.98329321 33281,6950.195,96.107,574.013,570.107,0.0
55760.0,STARLINK-5532,PAYLOAD,2023-10-05 12:14:58,14.98329868,0.0002797,69.9986,318.6477,273.8884,86.1955,-2.1262e-05,-3.47e-06,0.0,0 STARLINK-5532,1 55760U 23028V   23278.51039539 -.00000347  00000-0 -21262-4 0  9998,2 55760  69.9986 318.6477 0002797 273.8884  86.1955 14.98329868 33304,6950.193,96.107,574.002,570.114,0.0
55760.0,STARLINK-5532,PAYLOAD,2023-10-06 10:40:50,14.98331863,0.0002885,69.9983,316.2908,271.4267,88.6562,-2.7391e-05,-4.2e-06,0.0,0 STARLINK-5532,1 55760U 23028V   23279.44503375 -.00000420  00000-0 -27391-4 0  9996,2 55760  69.9983 316.2908 0002885 271.4267  88.6562 14.98331863 33434,6950.187,96.107,574.057,570.047,0.0
